NORAD_CAT_ID,OBJECT_NAME,OBJECT_TYPE,EPOCH,MEAN_MOTION,ECCENTRICITY,INCLINATION,RA_OF_ASC_NODE,ARG_OF_PERICENTER,MEAN_ANOMALY,BSTAR,MEAN_MOTION_DOT,MEAN_MOTION_DDOT,TLE_LINE0,TLE_LINE1,TLE_LINE2,SEMIMAJOR_AXIS,PERIOD,APOGEE,PERIGEE,DECAYED
52667.0,STARLINK-4076,PAYLOAD,2024-08-12 16:30:32,15.08860013,0.0001469,53.2142,210.9196,94.9401,265.1759,0.00046133,7.066e-05,0.0,0 STARLINK-4076,1 52667U 22053M   24225.68787444  .00007066  00000-0  46133-3 0  9990,2 52667  53.2142 210.9196 0001469  94.9401 265.1759 15.08860013124396,6917.819,95.436,540.7,538.668,0.0
52667.0,STARLINK-4076,PAYLOAD,2024-08-12 22:52:04,15.08862516,0.0001722,53.2124,209.7319,78.3981,281.7204,0.00060016,9.282e-05,0.0,0 STARLINK-4076,1 52667U 22053M   24225.95283413  .00009282  00000-0  60016-3 0  9995,2 52667  53.2124 209.7319 0001722  78.3981 281.7204 15.08862516124434,6917.812,95.436,540.868,538.485,0.0
52667.0,STARLINK-4076,PAYLOAD,2024-08-13 05:13:37,15.0885062,0.000149,53.2139,208.5357,102.1163,257.9996,0.00022493,3.295e-05,0.0,0 STARLINK-4076,1 52667U 22053M   24226.21779318  .00003295  00000-0  22493-3 0  9994,2 52667  53.2139 208.5357 0001490 102.1163 257.9996 15.08850620124479,6917.848,95.437,540.744,538.682,0.0
52667.0,STARLINK-4076,PAYLOAD,2024-08-13 08:24:23,15.08853048,0.0001558,53.2143,207.9405,103.4582,256.6584,0.00028771,4.295e-05,0.0,0 STARLINK-4076,1 52667U 22053M   24226.35027188  .00004295  00000-0  28771-3 0  9996,2 52667  53.2143 207.9405 0001558 103.4582 256.6584 15.08853048124493,6917.841,95.437,540.783,538.628,0.0
52667.0,STARLINK-4076,PAYLOAD,2024-08-13 16:21:20,15.08829005,0.000214,53.2146,206.4539,90.7314,269.3924,-0.00025103,-4.28e-05,0.0,0 STARLINK-4076,1 52667U 22053M   24226.68148238 -.00004280  00000-0 -25103-3 0  9994,2 52667  53.2146 206.4539 0002140  90.7314 269.3924 15.08829005124548,6917.914,95.438,541.259,538.299,0.0
52667.0,STARLINK-4076,PAYLOAD,2024-08-14 08:15:12,15.08822233,0.0001582,53.2159,203.4816,94.8668,265.2505,-0.00019241,-3.347e-05,0.0,0 STARLINK-4076,1 52667U 22053M   24227.34389144 -.00003347  00000-0 -19241-3 0  9990,2 52667  53.2159 203.4816 0001582  94.8668 265.2505 15.08822233124640,6917.935,95.439,540.894,538.705,0.0
52667.0,STARLINK-4076,PAYLOAD,2024-08-15 04:55:13,15.0883358,0.0001299,53.216,199.6174,92.1639,267.9502,0.0001416,1.966e-05,0.0,0 STARLINK-4076,1 52667U 22053M   24228.20501492  .00001966  00000-0  14160-3 0  9996,2 52667  53.2160 199.6174 0001299  92.1639 267.9502 15.08833580124776,6917.9,95.438,540.664,538.866,0.0
52667.0,STARLINK-4076,PAYLOAD,2024-08-16 04:45:59,15.08855387,0.0001271,53.2149,195.1558,86.2388,273.8749,0.00057585,8.892e-05,0.0,0 STARLINK-4076,1 52667U 22053M   24229.19861062  .00008892  00000-0  57585-3 0  9990,2 52667  53.2149 195.1558 0001271  86.2388 273.8749 15.08855387124920,6917.833,95.437,540.578,538.819,0.0
52667.0,STARLINK-4076,PAYLOAD,2024-08-17 04:36:46,15.0885043,0.000136,53.2149,190.6952,87.0113,273.1035,0.00017499,2.499e-05,0.0,0 STARLINK-4076,1 52667U 22053M   24230.19220899  .00002499  00000-0  17499-3 0  9996,2 52667  53.2149 190.6952 0001360  87.0113 273.1035 15.08850430125074,6917.849,95.437,540.654,538.773,0.0
52667.0,STARLINK-4076,PAYLOAD,2024-08-17 07:47:33,15.08847864,0.0001386,53.2149,190.101,85.5376,274.5775,0.00012874,1.762e-05,0.0,0 STARLINK-4076,1 52667U 22053M   24230.32468870  .00001762  00000-0  12874-3 0  9998,2 52667  53.2149 190.1010 0001386  85.5376 274.5775 15.08847864125091,6917.856,95.437,540.68,538.763,0.0
52667.0,STARLINK-4076,PAYLOAD,2024-08-18 04:27:33,15.08890411,0.0001982,53.2164,186.2352,69.9139,290.2067,0.001258,0.00019818,0.0,0 STARLINK-4076,1 52667U 22053M   24231.18579864  .00019818  00000-0  12580-2 0  9993,2 52667  53.2164 186.2352 0001982  69.9139 290.2067 15.08890411125228,6917.726,95.434,540.962,538.22,0.0
52667.0,STARLINK-4076,PAYLOAD,2024-08-18 06:02:55,15.08897836,0.0001663,53.2156,185.9374,98.6353,261.4828,0.0012268,0.00019321,0.0,0 STARLINK-4076,1 52667U 22053M   24231.25202654  .00019321  00000-0  12268-2 0  9993,2 52667  53.2156 185.9374 0001663  98.6353 261.4828 15.08897836125236,6917.704,95.434,540.719,538.418,0.0
52667.0,STARLINK-4076,PAYLOAD,2024-08-19 04:18:20,15.08833071,0.0001537,53.2162,181.7738,133.1989,226.9132,-0.00019937,-3.459e-05,0.0,0 STARLINK-4076,1 52667U 22053M   24232.17940373 -.00003459  00000-0 -19937-3 0  9990,2 52667  53.2162 181.7738 0001537 133.1989 226.9132 15.08833071125371,6917.902,95.438,540.83,538.703,0.0
52667.0,STARLINK-4076,PAYLOAD,2024-08-19 13:50:40,15.08826837,0.0001538,53.2168,179.9896,86.7952,273.3216,-0.00013862,-2.493e-05,0.0,0 STARLINK-4076,1 52667U 22053M   24232.57685467 -.00002493  00000-0 -13862-3 0  9992,2 52667  53.2168 179.9896 0001538  86.7952 273.3216 15.08826837125433,6917.921,95.438,540.85,538.722,0.0
52667.0,STARLINK-4076,PAYLOAD,2024-08-20 04:09:07,15.08848786,0.0001679,53.2157,177.314,81.9011,278.2171,-0.00010756,-2e-05,0.0,0 STARLINK-4076,1 52667U 22053M   24233.17300719 -.00002000  00000-0 -10756-3 0  9996,2 52667  53.2157 177.3140 0001679  81.9011 278.2171 15.08848786125525,6917.854,95.437,540.88,538.557,0.0
52667.0,STARLINK-4076,PAYLOAD,2024-08-21 02:24:32,15.08850827,0.0001624,53.2152,173.1509,83.3097,276.8079,0.00062288,9.642e-05,0.0,0 STARLINK-4076,1 52667U 22053M   24234.10037409  .00009642  00000-0  62288-3 0  9997,2 52667  53.2152 173.1509 0001624  83.3097 276.8079 15.08850827125668,6917.847,95.437,540.836,538.589,0.0
52667.0,STARLINK-4076,PAYLOAD,2024-08-21 19:53:47,15.08843596,0.0001693,53.2155,169.8799,84.1259,275.9926,0.00022599,3.311e-05,0.0,0 STARLINK-4076,1 52667U 22053M   24234.82901655  .00003311  00000-0  22599-3 0  9997,2 52667  53.2155 169.8799 0001693  84.1259 275.9926 15.08843596125777,6917.869,95.437,540.906,538.563,0.0
